NORAD_CAT_ID,OBJECT_NAME,OBJECT_TYPE,EPOCH,MEAN_MOTION,ECCENTRICITY,INCLINATION,RA_OF_ASC_NODE,ARG_OF_PERICENTER,MEAN_ANOMALY,BSTAR,MEAN_MOTION_DOT,MEAN_MOTION_DDOT,TLE_LINE0,TLE_LINE1,TLE_LINE2,SEMIMAJOR_AXIS,PERIOD,APOGEE,PERIGEE,DECAYED
53612.0,STARLINK-4658,PAYLOAD,2023-02-27 00:21:07,15.08851743,0.0001858,53.2168,162.2456,69.9974,290.1218,0.0006601,0.00010236,0.0,0 STARLINK-4658,1 53612U 22104AA  23058.01467572  .00010236  00000-0  66010-3 0  9994,2 53612  53.2168 162.2456 0001858  69.9974 290.1218 15.08851743 27998,6917.844,95.437,540.995,538.424,0.0
53612.0,STARLINK-4658,PAYLOAD,2023-02-27 17:50:22,15.0891786,0.0001528,53.2163,158.9729,72.9947,287.1213,0.0065504,0.00105755,0.0,0 STARLINK-4658,1 53612U 22104AA  23058.74331218  .00105755  00000-0  65504-2 0  9998,2 53612  53.2163 158.9729 0001528  72.9947 287.1213 15.08917860 28104,6917.642,95.433,540.564,538.45,0.0
53612.0,STARLINK-4658,PAYLOAD,2023-02-28 00:11:54,15.08867394,0.000102,53.2178,157.7842,82.7429,277.3679,0.0016259,0.00025702,0.0,0 STARLINK-4658,1 53612U 22104AA  23059.00827178  .00025702  00000-0  16259-2 0  9999,2 53612  53.2178 157.7842 0001020  82.7429 277.3679 15.08867394 28141,6917.797,95.436,540.367,538.956,0.0
53612.0,STARLINK-4658,PAYLOAD,2023-02-28 12:54:59,15.08875321,0.0001357,53.2171,155.4057,89.3249,270.7899,0.0017759,0.00028116,0.0,0 STARLINK-4658,1 53612U 22104AA  23059.53818600  .00028116  00000-0  17759-2 0  9995,2 53612  53.2171 155.4057 0001357  89.3249 270.7899 15.08875321 28222,6917.772,95.435,540.576,538.699,0.0
53612.0,STARLINK-4658,PAYLOAD,2023-02-28 17:41:08,15.08888439,0.0001464,53.2166,154.5135,91.9138,268.2022,0.0018645,0.0002955,0.0,0 STARLINK-4658,1 53612U 22104AA  23059.73690005  .00029550  00000-0  18645-2 0  9992,2 53612  53.2166 154.5135 0001464  91.9138 268.2022 15.08888439 28828,6917.732,95.434,540.61,538.585,0.0
53612.0,STARLINK-4658,PAYLOAD,2023-03-01 11:10:24,15.08812193,0.0001367,53.2175,151.2424,124.5289,235.5833,0.00195,0.00030859,0.0,0 STARLINK-4658,1 53612U 22104AA  23060.46556414  .00030859  00000-0  19500-2 0  9994,2 53612  53.2175 151.2424 0001367 124.5289 235.5833 15.08812193 28365,6917.965,95.439,540.776,538.885,0.0
53612.0,STARLINK-4658,PAYLOAD,2023-03-01 17:31:58,15.08808196,0.0001299,53.2177,150.0536,106.998,253.1155,0.0016183,0.00025539,0.0,0 STARLINK-4658,1 53612U 22104AA  23060.73053310  .00025539  00000-0  16183-2 0  9994,2 53612  53.2177 150.0536 0001299 106.9980 253.1155 15.08808196 28400,6917.978,95.44,540.741,538.944,0.0
53612.0,STARLINK-4658,PAYLOAD,2023-03-02 12:36:35,15.08870995,0.0001206,53.2176,146.4873,87.3664,272.7467,0.002242,0.00035604,0.0,0 STARLINK-4658,1 53612U 22104AA  23061.52541127  .00035604  00000-0  22420-2 0  9995,2 53612  53.2176 146.4873 0001206  87.3664 272.7467 15.08870995 28523,6917.786,95.436,540.485,538.816,0.0
53612.0,STARLINK-4658,PAYLOAD,2023-03-03 09:16:35,15.08876114,0.0001124,53.2175,142.6212,108.3079,251.8036,0.0020368,0.00032309,0.0,0 STARLINK-4658,1 53612U 22104AA  23062.38652482  .00032309  00000-0  20368-2 0  9995,2 53612  53.2175 142.6212 0001124 108.3079 251.8036 15.08876114 28653,6917.77,95.435,540.413,538.857,0.0
53612.0,STARLINK-4658,PAYLOAD,2023-03-03 10:51:58,15.08878972,0.0001205,53.2171,142.3232,107.7551,252.3572,0.0021146,0.00033562,0.0,0 STARLINK-4658,1 53612U 22104AA  23062.45276368  .00033562  00000-0  21146-2 0  9995,2 53612  53.2171 142.3232 0001205 107.7551 252.3572 15.08878972 29236,6917.761,95.435,540.46,538.793,0.0
53612.0,STARLINK-4658,PAYLOAD,2023-03-03 21:59:40,15.0886035,0.0001553,53.217,140.2428,100.8403,259.2764,0.0012988,0.00020454,0.0,0 STARLINK-4658,1 53612U 22104AA  23062.91644155  .00020454  00000-0  12988-2 0  9999,2 53612  53.2170 140.2428 0001553 100.8403 259.2764 15.08860350 28739,6917.818,95.436,540.758,538.609,0.0
53612.0,STARLINK-4658,PAYLOAD,2023-03-04 13:53:31,15.0886154,0.0002191,53.2188,137.2708,101.9944,258.1294,0.0013278,0.0002092,0.0,0 STARLINK-4658,1 53612U 22104AA  23063.57884154  .00020920  00000-0  13278-2 0  9998,2 53612  53.2188 137.2708 0002191 101.9944 258.1294 15.08861540 28835,6917.815,95.436,541.195,538.164,0.0
53612.0,STARLINK-4658,PAYLOAD,2023-03-04 21:50:27,15.08840391,0.0002015,53.2177,135.7819,84.8416,275.2806,3.7109e-06,-2.29e-06,0.0,0 STARLINK-4658,1 53612U 22104AA  23063.91004296 -.00000229  00000-0  37109-5 0  9990,2 53612  53.2177 135.7819 0002015  84.8416 275.2806 15.08840391 28882,6917.879,95.438,541.138,538.35,0.0
53612.0,STARLINK-4658,PAYLOAD,2023-03-05 21:41:15,15.0884958,0.0002006,53.2168,131.3243,80.313,279.8088,0.0012815,0.00020171,0.0,0 STARLINK-4658,1 53612U 22104AA  23064.90364726  .00020171  00000-0  12815-2 0  9998,2 53612  53.2168 131.3243 0002006  80.3130 279.8088 15.08849580 29601,6917.851,95.437,541.104,538.328,0.0
53612.0,STARLINK-4658,PAYLOAD,2023-03-06 10:24:20,15.08855235,0.0002385,53.2183,128.946,81.2511,278.8751,0.0008074,0.00012591,0.0,0 STARLINK-4658,1 53612U 22104AA  23065.43356588  .00012591  00000-0  80740-3 0  9994,2 53612  53.2183 128.9460 0002385  81.2511 278.8751 15.08855235 29110,6917.834,95.437,541.349,538.049,0.0
53612.0,STARLINK-4658,PAYLOAD,2023-03-06 13:35:06,15.08863001,0.0002359,53.2174,128.3452,92.5337,267.5925,0.00095847,0.00015009,0.0,0 STARLINK-4658,1 53612U 22104AA  23065.56604172  .00015009  00000-0  95847-3 0  9994,2 53612  53.2174 128.3452 0002359  92.5337 267.5925 15.08863001 29700,6917.81,95.436,541.307,538.043,0.0
53612.0,STARLINK-4658,PAYLOAD,2023-03-07 08:39:43,15.08843489,0.0001375,53.2182,124.7825,94.4382,265.6767,0.00046209,7.075e-05,0.0,0 STARLINK-4658,1 53612U 22104AA  23066.36092520  .00007075  00000-0  46209-3 0  9993,2 53612  53.2182 124.7825 0001375  94.4382 265.6767 15.08843489 29252,6917.87,95.437,540.686,538.784,0.0
53612.0,STARLINK-4658,PAYLOAD,2023-03-07 21:22:49,15.08816395,0.0001433,53.2178,122.3979,124.9539,235.1588,0.0014218,0.00022398,0.0,0 STARLINK-4658,1 53612U 22104AA  23066.89084685  .00022398  00000-0  14218-2 0  9993,2 53612  53.2178 122.3979 0001433 124.9539 235.1588 15.08816395 29900,6917.953,95.439,540.809,538.826,0.0
53612.0,STARLINK-4658,PAYLOAD,2023-03-08 03:44:22,15.08819312,0.0001727,53.2174,121.2085,130.159,229.9554,0.0015382,0.00024263,0.0,0 STARLINK-4658,1 53612U 22104AA  23067.15581155  .00024263  00000-0  15382-2 0  9993,2 53612  53.2174 121.2085 0001727 130.1590 229.9554 15.08819312 29371,6917.944,95.439,541.003,538.614,0.0
53612.0,STARLINK-4658,PAYLOAD,2023-03-08 10:05:54,15.08848766,0.000155,53.2166,120.0206,118.5591,241.5557,0.0020264,0.00032117,0.0,0 STARLINK-4658,1 53612U 22104AA  23067.42077137  .00032117  00000-0  20264-2 0  9995,2 53612  53.2166 120.0206 0001550 118.5591 241.5557 15.08848766 29412,6917.854,95.437,540.791,538.646,0.0
53612.0,STARLINK-4658,PAYLOAD,2023-03-08 14:52:03,15.08866465,0.0001681,53.2166,119.1268,126.4207,233.694,0.0024221,0.00038499,0.0,0 STARLINK-4658,1 53612U 22104AA  23067.61948783  .00038499  00000-0  24221-2 0  9996,2 53612  53.2166 119.1268 0001681 126.4207 233.6940 15.08866465 30018,6917.799,95.436,540.827,538.502,0.0
53612.0,STARLINK-4658,PAYLOAD,2023-03-09 19:29:00,15.08855464,0.0001615,53.2173,113.776,92.362,267.7557,0.0018418,0.00029158,0.0,0 STARLINK-4658,1 53612U 22104AA  23068.81180957  .00029158  00000-0  18418-2 0  9993,2 53612  53.2173 113.7760 0001615  92.3620 267.7557 15.08855464 29624,6917.833,95.437,540.815,538.581,0.0
53612.0,STARLINK-4658,PAYLOAD,2023-03-10 09:47:28,15.08871036,0.000109,53.2168,111.0998,116.5053,243.6051,0.0027046,0.00043055,0.0,0 STARLINK-4658,1 53612U 22104AA  23069.40796372  .00043055  00000-0  27046-2 0  9992,2 53612  53.2168 111.0998 0001090 116.5053 243.6051 15.08871036 29713,6917.786,95.436,540.405,538.896,0.0
53612.0,STARLINK-4658,PAYLOAD,2023-03-10 19:19:46,15.08861453,0.0001044,53.2169,109.3162,100.3733,259.7377,0.0011747,0.00018468,0.0,0 STARLINK-4658,1 53612U 22104AA  23069.80540324  .00018468  00000-0  11747-2 0  9991,2 53612  53.2169 109.3162 0001044 100.3733 259.7377 15.08861453 29779,6917.815,95.436,540.402,538.958,0.0
53612.0,STARLINK-4658,PAYLOAD,2023-03-11 08:02:52,15.08827885,0.0001007,53.2167,106.936,78.4067,281.7038,0.0015059,0.00023752,0.0,0 STARLINK-4658,1 53612U 22104AA  23070.33533329  .00023752  00000-0  15059-2 0  9990,2 53612  53.2167 106.9360 0001007  78.4067 281.7038 15.08827885 29853,6917.917,95.438,540.479,539.086,0.0
53612.0,STARLINK-4658,PAYLOAD,2023-03-11 12:49:02,15.0883325,0.0001217,53.2172,106.0448,78.6563,281.4566,0.001738,0.00027475,0.0,0 STARLINK-4658,1 53612U 22104AA  23070.53405606  .00027475  00000-0  17380-2 0  9993,2 53612  53.2172 106.0448 0001217  78.6563 281.4566 15.08833250 30457,6917.901,95.438,540.608,538.924,0.0
53612.0,STARLINK-4658,PAYLOAD,2023-03-12 11:04:26,15.0885714,0.0001139,53.2164,101.8819,89.443,270.6693,0.0016225,0.00025641,0.0,0 STARLINK-4658,1 53612U 22104AA  23071.46141780  .00025641  00000-0  16225-2 0  9996,2 53612  53.2164 101.8819 0001139  89.4430 270.6693 15.08857140 30027,6917.828,95.436,540.481,538.905,0.0
53612.0,STARLINK-4658,PAYLOAD,2023-03-12 14:15:12,15.08868527,0.0001084,53.2161,101.2872,90.7742,269.3375,0.0018309,0.00028994,0.0,0 STARLINK-4658,1 53612U 22104AA  23071.59389513  .00028994  00000-0  18309-2 0  9997,2 53612  53.2161 101.2872 0001084  90.7742 269.3375 15.08868527 30615,6917.793,95.436,540.408,538.908,0.0
53612.0,STARLINK-4658,PAYLOAD,2023-03-14 01:13:41,15.08871672,0.000113,53.2167,94.7452,90.3444,269.7678,0.0015107,0.00023857,0.0,0 STARLINK-4658,1 53612U 22104AA  23073.05117655  .00023857  00000-0  15107-2 0  9992,2 53612  53.2167  94.7452 0001130  90.3444 269.7678 15.08871672 30264,6917.784,95.436,540.43,538.867,0.0
53612.0,STARLINK-4658,PAYLOAD,2023-03-14 10:46:00,15.08848563,0.000127,53.2175,92.9585,110.6398,249.473,0.00041749,6.364e-05,0.0,0 STARLINK-4658,1 53612U 22104AA  23073.44861476  .00006364  00000-0  41749-3 0  9998,2 53612  53.2175  92.9585 0001270 110.6398 249.4730 15.08848563 30323,6917.854,95.437,540.598,538.841,0.0
